[{"OBJECT_NAME":"STARLINK-3740","OBJECT_ID":"2022-041E","EPOCH":"2026-03-09T08:57:39.244032","MEAN_MOTION":15.08836306,"ECCENTRICITY":0.00016619,"INCLINATION":53.2176,"RA_OF_ASC_NODE":110.5426,"ARG_OF_PERICENTER":91.1426,"MEAN_ANOMALY":268.9756,"EPHEMERIS_TYPE":0,"CLASSIFICATION_TYPE":"U","NORAD_CAT_ID":52265,"ELEMENT_SET_NO":999,"REV_AT_EPOCH":21431,"BSTAR":-1.3867938e-5,"MEAN_MOTION_DOT":-5.09e-6,"MEAN_MOTION_DDOT":0},{"OBJECT_NAME":"YUNYAO-1 48","OBJECT_ID":"2025-059F","EPOCH":"2026-03-09T22:24:05.789376","MEAN_MOTION":15.10574052,"ECCENTRICITY":0.00165064,"INCLINATION":97.6074,"RA_OF_ASC_NODE":250.9983,"ARG_OF_PERICENTER":137.6901,"MEAN_ANOMALY":222.5605,"EPHEMERIS_TYPE":0,"CLASSIFICATION_TYPE":"U","NORAD_CAT_ID":63349,"ELEMENT_SET_NO":999,"REV_AT_EPOCH":5331,"BSTAR":0.00030523847,"MEAN_MOTION_DOT":4.989e-5,"MEAN_MOTION_DDOT":0}]
